H1 CPF 01  gfz 2022 11 10 01  8141 terrasarx 
H2 0702601  6201 31698    2022 11 10 00 59 42 2022 11 15 00 00 42   120 1 1  0 0 0
H9
10 0 59896  42462.000000  0    -376926.265   6872470.226    300217.845
10 0 59896  42582.000000  0    -194288.514   6780132.322   1199312.503
10 0 59896  42702.000000  0     -10938.808   6566066.317   2077291.105
10 0 59896  42822.000000  0     167821.338   6234032.050   2918692.133
10 0 59896  42942.000000  0     336854.987   5789962.260   3708701.955
10 0 59896  43062.000000  0     491318.090   5241851.442   4433420.403
10 0 59896  43182.000000  0     626779.727   4599603.237   5080112.882
10 0 59896  43302.000000  0     739330.904   3874836.108   5637431.714
10 0 59896  43422.000000  0     825681.222   3080666.211   6095610.597
10 0 59896  43542.000000  0     883239.566   2231462.040   6446631.656
10 0 59896  43662.000000  0     910177.391   1342578.827   6684359.707
10 0 59896  43782.000000  0     905474.406    430077.184   6804643.444
10 0 59896  43902.000000  0     868945.553   -489567.058   6805382.530
10 0 59896  44022.000000  0     801248.629  -1399759.300   6686563.338
10 0 59896  44142.000000  0     703872.389  -2284085.580   6450259.573
10 0 59896  44262.000000  0     579105.276  -3126608.977   6100599.037
10 0 59896  44382.000000  0     429985.074  -3912159.054   5643694.070
10 0 59896  44502.000000  0     260231.426  -4626606.003   5087539.056
10 0 59896  44622.000000  0      74162.434  -5257119.002   4441878.154
10 0 59896  44742.000000  0    -123404.418  -5792406.134   3718041.272
10 0 59896  44862.000000  0    -327265.804  -6222927.150   2928747.767
10 0 59896  44982.000000  0    -531956.816  -6541073.952   2087882.821
10 0 59896  45102.000000  0    -731882.804  -6741313.262   1210250.533
10 0 59896  45222.000000  0    -921456.558  -6820292.115    311308.546
10 0 59896  45342.000000  0   -1095237.466  -6776898.212   -593113.947
10 0 59896  45462.000000  0   -1248067.281  -6612273.342  -1487104.335
10 0 59896  45582.000000  0   -1375199.780  -6329781.852  -2354954.570
10 0 59896  45702.000000  0   -1472421.827  -5934935.762  -3181443.674
10 0 59896  45822.000000  0   -1536162.597  -5435277.574  -3952109.384
10 0 59896  45942.000000  0   -1563587.872  -4840223.760  -4653502.016
10 0 59896  46062.000000  0   -1552677.326  -4160875.013  -5273415.053
10 0 59896  46182.000000  0   -1502283.751  -3409799.129  -5801090.243
10 0 59896  46302.000000  0   -1412172.947  -2600790.998  -6227395.113
10 0 59896  46422.000000  0   -1283043.720  -1748614.152  -6544970.244
10 0 59896  46542.000000  0   -1116528.216   -868730.278  -6748344.507
10 0 59896  46662.000000  0    -915173.186     22978.536  -6834019.458
10 0 59896  46782.000000  0    -682401.377    910491.014  -6800522.281
10 0 59896  46902.000000  0    -422454.034   1777926.944  -6648427.967
10 0 59896  47022.000000  0    -140316.434   2609823.777  -6380350.584
10 0 59896  47142.000000  0     158373.965   3391406.884  -6000905.034
10 0 59896  47262.000000  0     467436.534   4108850.230  -5516636.141
10 0 59896  47382.000000  0     780270.080   4749520.932  -4935915.815
10 0 59896  47502.000000  0    1089987.899   5302206.469  -4268810.395
10 0 59896  47622.000000  0    1389563.531   5757319.447  -3526916.240
10 0 59896  47742.000000  0    1671983.758   6107074.092  -2723166.269
10 0 59896  47862.000000  0    1930405.720   6345631.689  -1871609.915
10 0 59896  47982.000000  0    2158314.792   6469210.478   -987168.527
10 0 59896  48102.000000  0    2349679.057   6476155.340    -85370.558
10 0 59896  48222.000000  0    2499095.983   6366964.940    817927.076
10 0 59896  48342.000000  0    2601927.649   6144275.782   1706825.155
10 0 59896  48462.000000  0    2654421.010   5812803.584   2565670.153
10 0 59896  48582.000000  0    2653810.416   5379243.430   3379337.811
10 0 59896  48702.000000  0    2598399.880   4852130.751   4133506.541
10 0 59896  48822.000000  0    2487622.207   4241667.045   4814915.669
10 0 59896  48942.000000  0    2322071.967   3559511.169   5411600.790
10 0 59896  49062.000000  0    2103514.895   2818548.059   5913099.431
10 0 59896  49182.000000  0    1834874.341   2032639.752   6310630.269
10 0 59896  49302.000000  0    1520192.528   1216360.581   6597242.405
10 0 59896  49422.000000  0    1164568.402    384722.959   6767929.900
10 0 59896  49542.000000  0     774074.174   -447098.323   6819712.840
10 0 59896  49662.000000  0     355651.452  -1264042.109   6751687.822
10 0 59896  49782.000000  0     -83012.403  -2051433.887   6565042.921
10 0 59896  49902.000000  0    -533625.596  -2795249.407   6263037.919
10 0 59896  50022.000000  0    -987447.514  -3482365.433   5850949.212
10 0 59896  50142.000000  0   -1435455.221  -4100791.806   5335981.979
10 0 59896  50262.000000  0   -1868521.197  -4639884.422   4727152.700
10 0 59896  50382.000000  0   -2277599.761  -5090536.247   4035138.799
10 0 59896  50502.000000  0   -2653917.007  -5445340.731   3272095.030
10 0 59896  50622.000000  0   -2989158.676  -5698721.104   2451439.652
10 0 59896  50742.000000  0   -3275652.058  -5847023.856   1587616.812
10 0 59896  50862.000000  0   -3506538.234  -5888575.136    695838.101
10 0 59896  50982.000000  0   -3675930.098  -5823697.499   -208192.015
10 0 59896  51102.000000  0   -3779052.086  -5654686.654  -1108561.100
10 0 59896  51222.000000  0   -3812357.719  -5385747.786  -1989438.252
10 0 59896  51342.000000  0   -3773621.909  -5022892.967  -2835360.734
10 0 59896  51462.000000  0   -3662005.603  -4573802.944  -3631511.230
10 0 59896  51582.000000  0   -3478091.263  -4047657.914  -4363979.206
10 0 59896  51702.000000  0   -3223889.674  -3454942.851  -5020001.727
10 0 59896  51822.000000  0   -2902818.460  -2807231.834  -5588180.309
10 0 59896  51942.000000  0   -2519653.447  -2116956.814  -6058670.116
10 0 59896  52062.000000  0   -2080454.087  -1397166.353  -6423340.573
10 0 59896  52182.000000  0   -1592463.914   -661278.169  -6675904.694
10 0 59896  52302.000000  0   -1063989.668     77168.734  -6812015.484
10 0 59896  52422.000000  0    -504261.665    804757.548  -6829331.804
10 0 59896  52542.000000  0      76724.416   1508431.162  -6727554.457
10 0 59896  52662.000000  0     668380.571   2175720.004  -6508430.957
10 0 59896  52782.000000  0    1259714.913   2794958.836  -6175731.110
10 0 59896  52902.000000  0    1839531.972   3355488.738  -5735188.726
10 0 59896  53022.000000  0    2396640.669   3847840.686  -5194412.112
10 0 59896  53142.000000  0    2920067.992   4263897.986  -4562764.170
10 0 59896  53262.000000  0    3399274.629   4597036.321  -3851211.622
10 0 59896  53382.000000  0    3824368.446   4842236.918  -3072143.940
10 0 59896  53502.000000  0    4186311.931   4996169.786  -2239163.827
10 0 59896  53622.000000  0    4477116.664   5057243.854  -1366852.215
10 0 59896  53742.000000  0    4690021.621   5025624.650   -470512.620
10 0 59896  53862.000000  0    4819650.005   4903215.337    434102.766
10 0 59896  53982.000000  0    4862138.003   4693601.939   1331076.569
10 0 59896  54102.000000  0    4815235.095   4401966.533   2204613.315
10 0 59896  54222.000000  0    4678373.639   4034967.784   3039327.138
10 0 59896  54342.000000  0    4452701.885   3600590.841   3820521.704
10 0 59896  54462.000000  0    4141081.327   3107972.099   4534454.231
10 0 59896  54582.000000  0    3748051.028   2567204.391   5168579.276
10 0 59896  54702.000000  0    3279756.772   1989125.893   5711770.497
10 0 59896  54822.000000  0    2743848.070   1385099.264   6154511.264
10 0 59896  54942.000000  0    2149348.366    766785.097   6489055.617
10 0 59896  55062.000000  0    1506499.139    145915.847   6709556.589
10 0 59896  55182.000000  0     826581.044   -465925.326   6812163.809
10 0 59896  55302.000000  0     121714.413  -1057520.843   6795087.525
10 0 59896  55422.000000  0    -595357.200  -1618224.142   6658627.120
10 0 59896  55542.000000  0   -1311497.196  -2138151.189   6405165.384
10 0 59896  55662.000000  0   -2013414.960  -2608354.390   6039127.920
10 0 59896  55782.000000  0   -2687910.261  -3020976.933   5566912.060
10 0 59896  55902.000000  0   -3322123.594  -3369387.920   4996783.550
10 0 59896  56022.000000  0   -3903786.511  -3648292.775   4338736.714
10 0 59896  56142.000000  0   -4421463.106  -3853816.446   3604322.673
10 0 59896  56262.000000  0   -4864779.587  -3983558.712   2806449.368
10 0 59896  56382.000000  0   -5224638.011  -4036620.739   1959155.706
10 0 59896  56502.000000  0   -5493408.524  -4013601.225   1077360.893
10 0 59896  56622.000000  0   -5665093.783  -3916560.778    176595.570
10 0 59896  56742.000000  0   -5735462.210  -3748956.399   -727279.582
10 0 59896  56862.000000  0   -5702146.261  -3515547.469  -1618362.680
10 0 59896  56982.000000  0   -5564701.478  -3222274.399  -2481000.136
10 0 59896  57102.000000  0   -5324626.119  -2876114.736  -3300067.638
10 0 59896  57222.000000  0   -4985342.351  -2484921.000  -4061238.563
10 0 59896  57342.000000  0   -4552139.969  -2057244.093  -4751234.090
10 0 59896  57462.000000  0   -4032084.330  -1602147.418  -5358051.098
10 0 59896  57582.000000  0   -3433891.300  -1129015.409  -5871163.956
10 0 59896  57702.000000  0   -2767772.853   -647361.042  -6281696.826
10 0 59896  57822.000000  0   -2045257.216   -166636.880  -6582565.849
10 0 59896  57942.000000  0   -1278986.265    303946.649  -6768589.660
10 0 59896  58062.000000  0    -482496.044    755592.486  -6836568.031
10 0 59896  58182.000000  0     330017.361   1180077.201  -6785330.830
10 0 59896  58302.000000  0    1143943.608   1569896.031  -6615756.377
10 0 59896  58422.000000  0    1944515.273   1918393.026  -6330760.382
10 0 59896  58542.000000  0    2717070.649   2219873.730  -5935250.938
10 0 59896  58662.000000  0    3447318.771   2469698.007  -5436051.966
10 0 59896  58782.000000  0    4121601.301   2664352.036  -4841796.474
10 0 59896  58902.000000  0    4727150.617   2801499.174  -4162789.395
99
